H1 CPF 01  gfz 2021 01 19 01  5191 terrasarx 
H2 0702601  6201 31698    2021 01 19 00 59 42 2021 01 24 00 00 42   120 1 1  0 0 0
H9
10 0 59234  82782.000000  0     646193.698    998342.390  -6791550.865
10 0 59234  82902.000000  0     894294.231    115432.183  -6835700.745
10 0 59234  83022.000000  0    1111406.143   -773546.558  -6760638.921
10 0 59234  83142.000000  0    1293800.547  -1652624.230  -6567657.353
10 0 59234  83262.000000  0    1438621.461  -2505933.256  -6260076.438
10 0 59234  83382.000000  0    1543930.609  -3317987.803  -5843195.590
10 0 59234  83502.000000  0    1608732.358  -4073963.183  -5324212.635
10 0 59234  83622.000000  0    1632978.707  -4759967.620  -4712109.028
10 0 59234  83742.000000  0    1617554.993  -5363299.993  -4017505.328
10 0 59234  83862.000000  0    1564245.196  -5872693.003  -3252487.808
10 0 59234  83982.000000  0    1475676.835  -6278534.005  -2430405.224
10 0 59234  84102.000000  0    1355248.027  -6573057.871  -1565639.650
10 0 59234  84222.000000  0    1207037.267  -6750507.228   -673354.976
10 0 59234  84342.000000  0    1035696.636  -6807255.527    230772.837
10 0 59234  84462.000000  0     846333.338  -6741887.839   1130837.574
10 0 59234  84582.000000  0     644380.522  -6555238.516   2010990.830
10 0 59234  84702.000000  0     435462.143  -6250383.149   2855731.283
10 0 59234  84822.000000  0     225253.894  -5832583.190   3650186.695
10 0 59234  84942.000000  0      19343.974  -5309187.216   4380380.526
10 0 59234  85062.000000  0    -176901.621  -4689493.277   5033480.568
10 0 59234  85182.000000  0    -358466.491  -3984573.468   5598024.642
10 0 59234  85302.000000  0    -520800.577  -3207066.450   6064119.786
10 0 59234  85422.000000  0    -659924.403  -2370940.929   6423610.473
10 0 59234  85542.000000  0    -772518.539  -1491239.224   6670213.181
10 0 59234  85662.000000  0    -855996.713   -583804.842   6799620.670
10 0 59234  85782.000000  0    -908561.853    335004.190   6809573.735
10 0 59234  85902.000000  0    -929243.382   1248610.322   6699898.171
10 0 59234  86022.000000  0    -917914.595   2140515.004   6472507.470
10 0 59234  86142.000000  0    -875290.787   2994596.030   6131371.526
10 0 59234  86262.000000  0    -802908.449   3795399.703   5682451.908
10 0 59234  86382.000000  0    -703085.315   4528423.263   5133602.907
10 0 59235    102.000000  0    -578862.106   5180382.515   4494440.861
10 0 59235    222.000000  0    -433927.103   5739461.360   3776180.204
10 0 59235    342.000000  0    -272524.288   6195532.916   2991440.299
10 0 59235    462.000000  0     -99349.339   6540356.180   2154026.981
10 0 59235    582.000000  0      80567.880   6767735.811   1278683.618
10 0 59235    702.000000  0     261990.227   6873639.412    380826.104
10 0 59235    822.000000  0     439605.464   6856273.911   -523735.827
10 0 59235    942.000000  0     608161.183   6716116.372  -1419086.511
10 0 59235   1062.000000  0     762596.889   6455897.829  -2289492.941
10 0 59235   1182.000000  0     898171.115   6080543.141  -3119687.602
10 0 59235   1302.000000  0    1010581.440   5597068.178  -3895140.354
10 0 59235   1422.000000  0    1096073.936   5014437.018  -4602313.879
10 0 59235   1542.000000  0    1151539.480   4343383.147  -5228897.193
10 0 59235   1662.000000  0    1174594.748   3596200.404  -5764012.961
10 0 59235   1782.000000  0    1163645.962   2786509.275  -6198397.440
10 0 59235   1902.000000  0    1117934.737   1929002.281  -6524549.594
10 0 59235   2022.000000  0    1037565.292   1039176.479  -6736848.591
10 0 59235   2142.000000  0     923512.840    133055.847  -6831641.783
10 0 59235   2262.000000  0     777613.284   -773092.876  -6807300.565
10 0 59235   2382.000000  0     602533.705  -1663045.931  -6664243.871
10 0 59235   2502.000000  0     401725.167  -2520904.354  -6404930.824
10 0 59235   2622.000000  0     179357.844  -3331371.468  -6033825.443
10 0 59235   2742.000000  0     -59761.624  -4080023.705  -5557327.877
10 0 59235   2862.000000  0    -310287.449  -4753566.759  -4983673.953
10 0 59235   2982.000000  0    -566446.666  -5340075.572  -4322804.648
10 0 59235   3102.000000  0    -822164.036  -5829213.414  -3586204.556
10 0 59235   3222.000000  0   -1071197.050  -6212424.534  -2786710.658
10 0 59235   3342.000000  0   -1307278.291  -6483095.861  -1938294.479
10 0 59235   3462.000000  0   -1524262.123  -6636684.427  -1055819.705
10 0 59235   3582.000000  0   -1716271.706  -6670805.005   -154779.049
10 0 59235   3702.000000  0   -1877842.957  -6585275.103    748983.435
10 0 59235   3822.000000  0   -2004061.980  -6382115.924   1639558.792
10 0 59235   3942.000000  0   -2090691.941  -6065508.707   2501262.342
10 0 59235   4062.000000  0   -2134285.712  -5641707.023   3318918.976
10 0 59235   4182.000000  0   -2132281.223  -5118907.477   4078137.346
10 0 59235   4302.000000  0   -2083077.469  -4507083.337   4765567.135
10 0 59235   4422.000000  0   -1986090.059  -3817786.091   5369135.073
10 0 59235   4542.000000  0   -1841785.086  -3063917.915   5878256.604
10 0 59235   4662.000000  0   -1651689.109  -2259481.293   6284016.830
10 0 59235   4782.000000  0   -1418376.307  -1419313.951   6579320.313
10 0 59235   4902.000000  0   -1145434.310   -558811.720   6759009.640
10 0 59235   5022.000000  0    -837409.430    306355.594   6819948.950
10 0 59235   5142.000000  0    -499731.220   1160528.405   6761075.299
10 0 59235   5262.000000  0    -138616.640   1988340.390   6583416.617
10 0 59235   5382.000000  0     239044.254   2774994.669   6290074.731
10 0 59235   5502.000000  0     625818.740   3506528.209   5886174.388
10 0 59235   5622.000000  0    1013875.811   4170062.045   5378779.319
10 0 59235   5742.000000  0    1395142.756   4754032.441   4776774.655
10 0 59235   5862.000000  0    1761471.121   5248399.334   4090716.729
10 0 59235   5982.000000  0    2104808.805   5644825.972   3332653.017
10 0 59235   6102.000000  0    2417375.732   5936829.785   2515913.901
10 0 59235   6222.000000  0    2691836.409   6119897.959   1654875.146
10 0 59235   6342.000000  0    2921467.704   6191562.293    764699.328
10 0 59235   6462.000000  0    3100314.458   6151432.503   -138938.337
10 0 59235   6582.000000  0    3223331.625   6001188.556  -1040133.784
10 0 59235   6702.000000  0    3286508.755   5744530.814  -1923042.340
10 0 59235   6822.000000  0    3286973.330   5387090.610  -2772164.614
10 0 59235   6942.000000  0    3223070.664   4936302.427  -3572624.874
10 0 59235   7062.000000  0    3094417.388   4401241.025  -4310434.219
10 0 59235   7182.000000  0    2901928.687   3792430.457  -4972733.163
10 0 59235   7302.000000  0    2647818.834   3121629.232  -5548010.805
10 0 59235   7422.000000  0    2335576.630   2401596.572  -6026296.731
10 0 59235   7542.000000  0    1969915.198   1645845.326  -6399323.395
10 0 59235   7662.000000  0    1556698.627    868387.287  -6660656.823
10 0 59235   7782.000000  0    1102847.858     83475.999  -6805796.970
10 0 59235   7902.000000  0     616224.723   -694650.162  -6832248.037
10 0 59235   8022.000000  0     105497.141  -1452021.019  -6739555.269
10 0 59235   8142.000000  0    -420011.043  -2175178.025  -6529310.951
10 0 59235   8262.000000  0    -950485.704  -2851407.662  -6205131.718
10 0 59235   8382.000000  0   -1475801.407  -3468962.620  -5772602.854
10 0 59235   8502.000000  0   -1985709.777  -4017264.730  -5239191.552
10 0 59235   8622.000000  0   -2470036.157  -4487089.373  -4614130.425
10 0 59235   8742.000000  0   -2918881.668  -4870727.439  -3908268.765
10 0 59235   8862.000000  0   -3322825.290  -5162119.478  -3133893.154
10 0 59235   8982.000000  0   -3673122.048  -5356960.208  -2304520.798
10 0 59235   9102.000000  0   -3961893.560  -5452770.505  -1434667.196
10 0 59235   9222.000000  0   -4182305.507  -5448934.077   -539591.477
10 0 59235   9342.000000  0   -4328726.748  -5346697.174    364975.751
10 0 59235   9462.000000  0   -4396866.054  -5149130.674   1263116.096
10 0 59235   9582.000000  0   -4383882.638  -4861054.558   2139013.003
10 0 59235   9702.000000  0   -4288466.676  -4488926.229   2977239.423
10 0 59235   9822.000000  0   -4110888.781  -4040696.875   3763036.929
10 0 59235   9942.000000  0   -3853017.216  -3525639.475   4482581.519
10 0 59235  10062.000000  0   -3518301.650  -2954151.772   5123229.758
10 0 59235  10182.000000  0   -3111725.425  -2337541.032   5673739.379
10 0 59235  10302.000000  0   -2639727.925  -1687796.702   6124463.279
10 0 59235  10422.000000  0   -2110098.590  -1017354.120   6467514.809
10 0 59235  10542.000000  0   -1531843.722   -338852.765   6696900.955
10 0 59235  10662.000000  0    -915029.131    335103.045   6808618.750
10 0 59235  10782.000000  0    -270604.922    992176.468   6800720.130
10 0 59235  10902.000000  0     389788.534   1620523.394   6673344.327
10 0 59235  11022.000000  0    1054030.437   2209005.906   6428715.709
10 0 59235  11142.000000  0    1709741.336   2747389.512   6071106.537
10 0 59235  11262.000000  0    2344512.858   3226521.785   5606767.458
10 0 59235  11382.000000  0    2946143.264   3638491.362   5043825.320
10 0 59235  11502.000000  0    3502875.082   3976763.135   4392146.105
10 0 59235  11622.000000  0    4003626.770   4236285.114   3663166.418
10 0 59235  11742.000000  0    4438218.197   4413569.735   2869698.419
10 0 59235  11862.000000  0    4797584.140   4506742.090   2025702.092
10 0 59235  11982.000000  0    5073965.443   4515556.206   1146037.311
10 0 59235  12102.000000  0    5261079.549   4441377.945    246196.449
10 0 59235  12222.000000  0    5354261.085   4287134.295   -657977.793
10 0 59235  12342.000000  0    5350569.052   4057230.484  -1550580.157
10 0 59235  12462.000000  0    5248860.159   3757437.646  -2415930.495
10 0 59235  12582.000000  0    5049825.759   3394753.448  -3238855.347
10 0 59235  12702.000000  0    4755991.834   2977241.098  -4004957.321
10 0 59235  12822.000000  0    4371682.517   2513850.325  -4700868.050
99
